     2              NAVIGATION DATA                         RINEX VERSION / TYPE
CCRINEXN V1.6.0 UX  CDDIS               27-SEP-16 08:42     PGM / RUN BY / DATE 
IGS BROADCAST EPHEMERIS FILE                                COMMENT             
    0.8382D-08  0.1490D-07 -0.5960D-07 -0.5960D-07          ION ALPHA           
    0.8397D+05  0.1638D+05 -0.1311D+06 -0.6554D+05          ION BETA            
   -0.279396772385D-08-0.444089209850D-14   233472     1916 DELTA-UTC: A0,A1,T,W
    17                                                      LEAP SECONDS        
                                                            END OF HEADER       
20 16  9 25 21 59 44.0 0.437562353909D-03 0.204636307899D-11 0.000000000000D+00
    0.100000000000D+01 0.168437500000D+02 0.540058209878D-08 0.220709787917D+00
    0.968575477600D-06 0.466969143599D-02 0.100526958704D-04 0.515358783150D+04
    0.791840000000D+05-0.763684511185D-07 0.282302868936D+01 0.167638063431D-07
    0.926856298348D+00 0.169156250000D+03 0.144354936428D+01-0.846749556232D-08
    0.328227957726D-09 0.100000000000D+01 0.191600000000D+04 0.000000000000D+00
    0.200000000000D+01 0.000000000000D+00-0.838190317154D-08 0.100000000000D+01
    0.733500000000D+05 0.400000000000D+01 0.000000000000D+00 0.000000000000D+00
24 16  9 25 21 59 44.0-0.237063504755D-04-0.568434188608D-12 0.000000000000D+00
    0.900000000000D+01-0.756250000000D+01 0.475912680816D-08-0.722353079717D+00
   -0.532716512680D-06 0.468937540427D-02 0.887177884579D-05 0.515372858810D+04
    0.791840000000D+05 0.147148966789D-06-0.130363416610D+01 0.670552253723D-07
    0.947830478155D+00 0.204031250000D+03 0.395989882271D+00-0.818676958324D-08
   -0.535736601294D-09 0.100000000000D+01 0.191600000000D+04 0.000000000000D+00
    0.200000000000D+01 0.000000000000D+00 0.232830643654D-08 0.900000000000D+01
    0.788400000000D+05 0.400000000000D+01 0.000000000000D+00 0.000000000000D+00
28 16  9 25 21 59 44.0 0.554716680199D-03 0.284217094304D-11 0.000000000000D+00
    0.170000000000D+02 0.663437500000D+02 0.364550899294D-08 0.195715380784D+01
    0.324659049511D-05 0.199033026584D-01 0.832602381706D-05 0.515363218117D+04
    0.791840000000D+05 0.266358256340D-06-0.152202745981D+00-0.316649675369D-06
    0.989644266862D+00 0.228000000000D+03-0.161122585999D+01-0.752245619764D-08
    0.208222959036D-09 0.100000000000D+01 0.191600000000D+04 0.000000000000D+00
    0.200000000000D+01 0.000000000000D+00-0.107102096081D-07 0.170000000000D+02
    0.720000000000D+05 0.400000000000D+01 0.000000000000D+00 0.000000000000D+00
 1 16  9 25 22  0  0.0 0.352016650140D-04 0.125055521494D-11 0.000000000000D+00
    0.420000000000D+02-0.994062500000D+02 0.438375424849D-08-0.102727074222D+01
   -0.507570803165D-05 0.591929536313D-02 0.864826142788D-05 0.515370816231D+04
    0.792000000000D+05 0.158324837685D-06 0.187021486269D+01-0.931322574616D-08
    0.965135040606D+00 0.212781250000D+03 0.554201574503D+00-0.804176369940D-08
   -0.428589282120D-10 0.100000000000D+01 0.191600000000D+04 0.000000000000D+00
    0.200000000000D+01 0.000000000000D+00 0.512227416039D-08 0.420000000000D+02
    0.720000000000D+05 0.000000000000D+00 0.000000000000D+00 0.000000000000D+00
 2 16  9 25 22  0  0.0 0.548155512661D-03-0.500222085975D-11 0.000000000000D+00
    0.680000000000D+02-0.744062500000D+02 0.502056626959D-08-0.569240483540D+00
   -0.369735062122D-05 0.159569184761D-01 0.807084143162D-05 0.515364581108D+04
    0.792000000000D+05-0.838190317154D-07 0.182206562343D+01 0.251457095146D-06
    0.943934030961D+00 0.220656250000D+03-0.208266804922D+01-0.856714257016D-08
   -0.339299847486D-10 0.100000000000D+01 0.191600000000D+04 0.000000000000D+00
    0.280000000000D+01 0.000000000000D+00-0.204890966415D-07 0.680000000000D+02
    0.720000000000D+05 0.400000000000D+01 0.000000000000D+00 0.000000000000D+00
 3 16  9 25 22  0  0.0-0.891378149390D-04-0.204636307899D-11 0.000000000000D+00
    0.260000000000D+02 0.653125000000D+01 0.465697969618D-08-0.203056928518D+01
    0.363215804100D-06 0.209245947190D-03 0.102017074823D-04 0.515361615372D+04
    0.792000000000D+05 0.968575477600D-07 0.291188311068D+01-0.316649675369D-07
    0.959862733587D+00 0.182312500000D+03 0.427254583337D+00-0.802390565645D-08
    0.419303179946D-09 0.100000000000D+01 0.191600000000D+04 0.000000000000D+00
    0.200000000000D+01 0.000000000000D+00 0.139698386192D-08 0.260000000000D+02
    0.720000000000D+05 0.400000000000D+01 0.000000000000D+00 0.000000000000D+00
 4 16  9 25 22  0  0.0 0.271527096629D-05 0.329691829393D-11 0.000000000000D+00
    0.110000000000D+03 0.646875000000D+01 0.486877423256D-08 0.254434312002D+01
    0.489875674248D-06 0.841048255097D-02 0.541284680367D-05 0.515360086060D+04
    0.792000000000D+05 0.238418579102D-06-0.221200139186D+01 0.391155481338D-07
    0.966186845057D+00 0.273687500000D+03-0.101939600635D+01-0.819391273793D-08
   -0.236081262304D-09 0.100000000000D+01 0.191600000000D+04 0.000000000000D+00
    0.400000000000D+01 0.630000000000D+02-0.372529029846D-08 0.110000000000D+03
    0.720000000000D+05 0.400000000000D+01 0.000000000000D+00 0.000000000000D+00
 5 16  9 25 22  0  0.0-0.886381603777D-04 0.250111042988D-11 0.000000000000D+00
    0.100000000000D+03 0.133437500000D+02 0.496413534759D-08 0.190657130426D+01
    0.802800059319D-06 0.478576077148D-02 0.102575868368D-04 0.515360766411D+04
    0.792000000000D+05-0.173225998878D-06 0.289835860859D+01 0.707805156708D-07
    0.946888944079D+00 0.175937500000D+03 0.513935007456D+00-0.818176937496D-08
    0.371086885830D-09 0.100000000000D+01 0.191600000000D+04 0.000000000000D+00
    0.200000000000D+01 0.000000000000D+00-0.107102096081D-07 0.100000000000D+03
    0.753000000000D+05 0.400000000000D+01 0.000000000000D+00 0.000000000000D+00
 6 16  9 25 22  0  0.0 0.251264777035D-03 0.511590769747D-11 0.000000000000D+00
    0.380000000000D+02-0.883437500000D+02 0.442982737723D-08-0.573494002704D+00
   -0.473111867905D-05 0.197285553441D-03 0.856071710587D-05 0.515377627182D+04
    0.792000000000D+05-0.204890966415D-07 0.186180667958D+01 0.000000000000D+00
    0.964940447631D+00 0.220343750000D+03-0.153510284313D+01-0.801640534403D-08
   -0.482162941165D-10 0.100000000000D+01 0.191600000000D+04 0.000000000000D+00
    0.200000000000D+01 0.000000000000D+00 0.419095158577D-08 0.380000000000D+02
    0.720000000000D+05 0.400000000000D+01 0.000000000000D+00 0.000000000000D+00
 7 16  9 25 22  0  0.0 0.424434430897D-03-0.295585778076D-11 0.000000000000D+00
    0.250000000000D+02-0.612500000000D+01 0.427089218552D-08-0.169645803471D+01
   -0.394880771637D-06 0.100339854835D-01 0.976026058197D-05 0.515363032722D+04
    0.792000000000D+05 0.204890966415D-07-0.125436074891D+01-0.188127160072D-06
    0.964785871318D+00 0.193218750000D+03-0.262913056765D+01-0.781568269741D-08
   -0.409302763389D-09 0.100000000000D+01 0.191600000000D+04 0.000000000000D+00
    0.200000000000D+01 0.000000000000D+00-0.111758708954D-07 0.250000000000D+02
    0.720000000000D+05 0.400000000000D+01 0.000000000000D+00 0.000000000000D+00
 8 16  9 25 22  0  0.0-0.331555493176D-04-0.136424205266D-11 0.000000000000D+00
    0.510000000000D+02-0.145625000000D+02 0.461804950315D-08 0.190880537327D+01
   -0.737607479095D-06 0.176255567931D-02 0.296905636787D-05 0.515375321198D+04
    0.792000000000D+05 0.279396772385D-07 0.808432003124D+00 0.502914190292D-07
    0.964349959767D+00 0.323468750000D+03-0.101765755643D+01-0.838463496799D-08
    0.950039572962D-10 0.100000000000D+01 0.191600000000D+04 0.000000000000D+00
    0.200000000000D+01 0.000000000000D+00 0.512227416039D-08 0.510000000000D+02
    0.720000000000D+05 0.400000000000D+01 0.000000000000D+00 0.000000000000D+00
 9 16  9 25 22  0  0.0 0.213249120861D-03 0.727595761418D-11 0.000000000000D+00
    0.370000000000D+02 0.184687500000D+02 0.506878256371D-08 0.110332891817D+01
    0.828877091408D-06 0.543972710148D-03 0.560656189919D-05 0.515377275085D+04
    0.792000000000D+05-0.223517417908D-07-0.233324256803D+01-0.111758708954D-07
    0.954470511174D+00 0.266625000000D+03 0.199362684105D+01-0.832320383771D-08
   -0.775032283206D-10 0.100000000000D+01 0.191600000000D+04 0.000000000000D+00
    0.200000000000D+01 0.000000000000D+00 0.139698386192D-08 0.370000000000D+02
    0.720000000000D+05 0.400000000000D+01 0.000000000000D+00 0.000000000000D+00
10 16  9 25 22  0  0.0-0.101701822132D-03-0.409272615798D-11 0.000000000000D+00
    0.650000000000D+02 0.172812500000D+02 0.463983612494D-08 0.312532829465D+01
    0.100582838058D-05 0.174040975981D-02 0.101495534182D-04 0.515367904854D+04
    0.792000000000D+05-0.372529029846D-08 0.290798106636D+01 0.353902578354D-07
    0.960077800100D+00 0.185343750000D+03-0.286507724716D+01-0.794425948172D-08
    0.435732435719D-09 0.100000000000D+01 0.191600000000D+04 0.000000000000D+00
    0.200000000000D+01 0.000000000000D+00 0.232830643654D-08 0.650000000000D+02
    0.754200000000D+05 0.400000000000D+01 0.000000000000D+00 0.000000000000D+00
11 16  9 25 22  0  0.0-0.665196683258D-03-0.102318153950D-11 0.000000000000D+00
    0.107000000000D+03-0.918125000000D+02 0.604453731512D-08-0.159557160080D+01
   -0.430271029472D-05 0.168276194017D-01 0.519119203091D-05 0.515368027115D+04
    0.792000000000D+05 0.135973095894D-06 0.148453489851D+01 0.420957803726D-06
    0.897692913793D+00 0.242875000000D+03 0.157710706719D+01-0.892430040977D-08
   -0.103218586456D-09 0.100000000000D+01 0.191600000000D+04 0.000000000000D+00
    0.400000000000D+01 0.000000000000D+00-0.121071934700D-07 0.107000000000D+03
    0.720000000000D+05 0.000000000000D+00 0.000000000000D+00 0.000000000000D+00
